[{"OBJECT_NAME":"STARLINK-2235","OBJECT_ID":"2021-041AE","EPOCH":"2026-03-09T09:04:03.505440","MEAN_MOTION":15.06400283,"ECCENTRICITY":0.0001518,"INCLINATION":53.0554,"RA_OF_ASC_NODE":98.0301,"ARG_OF_PERICENTER":100.5104,"MEAN_ANOMALY":259.6056,"EPHEMERIS_TYPE":0,"CLASSIFICATION_TYPE":"U","NORAD_CAT_ID":48581,"ELEMENT_SET_NO":999,"REV_AT_EPOCH":26565,"BSTAR":-4.3567038e-5,"MEAN_MOTION_DOT":-9.3e-6,"MEAN_MOTION_DDOT":0},{"OBJECT_NAME":"COSMOS 1275 DEB","OBJECT_ID":"1981-053RH","EPOCH":"2026-03-08T19:02:02.535360","MEAN_MOTION":15.08606043,"ECCENTRICITY":0.00097404,"INCLINATION":83.3308,"RA_OF_ASC_NODE":196.5935,"ARG_OF_PERICENTER":282.896,"MEAN_ANOMALY":77.1182,"EPHEMERIS_TYPE":0,"CLASSIFICATION_TYPE":"U","NORAD_CAT_ID":42145,"ELEMENT_SET_NO":999,"REV_AT_EPOCH":64889,"BSTAR":0.0090120528,"MEAN_MOTION_DOT":0.00143721,"MEAN_MOTION_DDOT":0}]
